GLOBALSTAR M035 [-]     
1 25851U 99037A   23262.75205220 -.00000021  00000+0  15977-2 0  9991
2 25851  51.9988  34.2504 0014037  33.6647 108.6374 11.04526125 25941
GLOBALSTAR M032 [-]     
1 25852U 99037B   23263.34459548 -.00000027  00000+0  12704-2 0  9993
2 25852  51.9932 262.0046 0007743 174.6258 185.4626 11.19044958 63662
GLOBALSTAR M051 [-]     
1 25853U 99037C   23263.00930639 -.00000039  00000+0  80584-3 0  9997
2 25853  51.9781 135.5741 0001649 130.0669 230.0286 11.42191837 59717
GLOBALSTAR M030 [-]     
1 25854U 99037D   23262.44309633 -.00000028  00000+0  10050-2 0  9997
2 25854  51.9914 343.5281 0003911 348.9104  11.1626 11.55090615 76568
GLOBALSTAR M048 [-]     
1 25872U 99041A   23262.11455596 -.00000082  00000+0 -32032-3 0  9992
2 25872  51.9391  48.1233 0013606 158.4416  12.8176 11.33839597 52607
GLOBALSTAR M026 [-]     
1 25873U 99041B   23262.01365060  .00000047  00000+0  40736-2 0  9996
2 25873  52.0000 160.5803 0001311 315.3572 141.2099 11.06826436 78131
GLOBALSTAR M043 [-]     
1 25874U 99041C   23262.07769199 -.00000024  00000+0  13063-2 0  9993
2 25874  51.9384 130.4690 0012963 308.2353 205.3461 11.25674583 51151
GLOBALSTAR M028 [-]     
1 25875U 99041D   23262.38656427 -.00000104  00000+0 -20542-4 0  9999
2 25875  51.9624 291.8217 0063788 128.5765 232.0834 12.50540328110534
